QIANFAN-210             
1 69809U 26153K   26198.21147172  .00000051  00000+0  15948-4 0  9996
2 69809  88.9925 358.8158 0008107 176.5444 183.5806 14.23252529  1838
QIANFAN-211             
1 69810U 26153L   26198.07038623  .00000049  00000+0  15311-4 0  9993
2 69810  88.9924 358.8317 0007701 173.6396 186.4896 14.23381926  1812
QIANFAN-212             
1 69811U 26153M   26197.92699998  .00000158  00000+0  59325-4 0  9999
2 69811  88.9924 358.8476 0008246 179.1542 180.9667 14.26669772  1791
QIANFAN-213             
1 69812U 26153N   26198.20751756  .00000161  00000+0  60690-4 0  9994
2 69812  88.9924 358.8151 0007988 178.1285 181.9940 14.26674171  1836
QIANFAN-214             
1 69813U 26153P   26198.06717320  .00000114  00000+0  41173-4 0  9991
2 69813  88.9924 358.8314 0008009 177.9806 182.1422 14.26715307  1812
QIANFAN-215             
1 69814U 26153Q   26198.20741618  .00000129  00000+0  47363-4 0  9998
2 69814  88.9923 358.8148 0008111 178.9203 181.2010 14.26718685  1830
QIANFAN-216             
1 69815U 26153R   26198.20740890  .00000053  00000+0  15920-4 0  9990
2 69815  88.9924 358.8151 0008082 178.7232 181.3984 14.26719738  1834
QIANFAN-217             
1 69816U 26153S   26198.20696557 -.00000018  00000+0 -13432-4 0  9990
2 69816  88.9918 358.8151 0007762 176.2626 183.8627 14.26767977  1831
QIANFAN-218             
1 69817U 26153T   26198.20659262  .00000105  00000+0  37450-4 0  9994
2 69817  88.9925 358.8152 0007556 172.5762 187.5545 14.26810969  1832
CZ-6A R/B               
1 69818U 26153U   26198.24823348  .00000149  00000+0  29678-4 0  9998
2 69818  89.0165 358.7350 0087038  80.1303 280.9718 14.53449124  1873
STARLINK-37520          
1 69819U 26154A   26198.25002315 -.00029340  00000+0 -14545-3 0  9996
2 69819  53.1585 282.6547 0001558  79.5939 103.2896 15.80895588  3006
STARLINK-37553          
1 69820U 26154B   26198.25002315  .00005304  00000+0  30382-4 0  9998
2 69820  53.1586 282.6452 0000797 100.3416  86.8153 15.80883271  3009
STARLINK-37561          
1 69821U 26154C   26198.25002315  .00008682  00000+0  47465-4 0  9991
2 69821  53.1587 282.6364 0001133  95.9863  95.4406 15.80881851  3002
STARLINK-37521          
1 69822U 26154D   26198.25002315  .00000175  00000+0  44258-5 0  9999
2 69822  53.1588 282.6277 0001112  92.4104 103.2901 15.80881894  3009
STARLINK-37628          
1 69823U 26154E   26198.25002315  .00012226  00000+0  65375-4 0  9992
2 69823  53.1589 282.6190 0001074  88.6554 111.3175 15.80878684  3004
STARLINK-37695          
1 69824U 26154F   26198.25002315  .00039264  00000+0  20176-3 0  9993
2 69824  53.1590 282.5372 0000496 152.5048  86.9542 15.80851143  3000
STARLINK-37690          
1 69825U 26154G   26198.25002315 -.00012515  00000+0 -59899-4 0  9991
2 69825  53.1589 282.6014 0001069  94.3091 114.2025 15.80894341  3009
STARLINK-37710          
1 69826U 26154H   26198.25002315  .00016501  00000+0  86972-4 0  9991
2 69826  53.1589 282.5925 0000994  89.8736 122.9163 15.80875223  3008
STARLINK-38031          
1 69827U 26154J   26198.25002315 -.00003274  00000+0 -13049-4 0  9992
2 69827  53.1589 282.5833 0000786  74.0058 143.0509 15.80887218  3004
STARLINK-38001          
1 69828U 26154K   26198.25002315 -.00021241  00000+0 -10419-3 0  9994
2 69828  53.1590 282.5746 0001147  84.8265 136.4928 15.80903758  3000
STARLINK-37622          
1 69829U 26154L   26198.25002315 -.00022741  00000+0 -11185-3 0  9992
2 69829  53.1588 282.5659 0001076  79.9605 145.6363 15.80898179  3000
STARLINK-37621          
1 69830U 26154M   26198.25002315  .00057291  00000+0  29212-3 0  9990
2 69830  53.1624 282.5569 0000771  90.8023 139.0713 15.80855335  3003
STARLINK-37918          
1 69831U 26154N   26198.25002315  .00029935  00000+0  15465-3 0  9990
2 69831  53.1589 282.5482 0001004  95.9477 138.1980 15.80876244  3005
STARLINK-37887          
1 69832U 26154P   26198.25002315 -.00113564  00000+0 -57647-3 0  9993
2 69832  53.1589 282.5395 0000696  54.3610 183.9839 15.80983926  3000
STARLINK-37624          
1 69833U 26154Q   26198.25002315  .00031277  00000+0  16144-3 0  9999
2 69833  53.1587 282.5301 0000939  78.7730 163.9143 15.80871808  3000
STARLINK-37769          
1 69834U 26154R   26198.25002315  .00018281  00000+0  95966-4 0  9990
2 69834  53.1624 282.5212 0001162  84.1695 162.7941 15.80871966  3002
STARLINK-37247          
1 69835U 26154S   26198.25002315 -.00006954  00000+0 -31633-4 0  9998
2 69835  53.1588 282.5129 0001453  48.0609 203.0346 15.80925870  3109
STARLINK-37569          
1 69836U 26154T   26198.25002315  .00051851  00000+0  26487-3 0  9993
2 69836  53.1624 282.5039 0000978  85.4516 170.0574 15.80856350  3005
STARLINK-37587          
1 69837U 26154U   26198.25002315 -.00043380  00000+0 -21696-3 0  9991
2 69837  53.1590 282.4946 0001290  75.0656 184.7091 15.80909778  2976
STARLINK-37590          
1 69838U 26154V   26198.25002315  .00017166  00000+0  90320-4 0  9994
2 69838  53.1614 282.4862 0000824 110.0898 153.9601 15.80876450  2842
