OBJECT_NAME,OBJECT_ID,EPOCH,MEAN_MOTION,ECCENTRICITY,INCLINATION,RA_OF_ASC_NODE,ARG_OF_PERICENTER,MEAN_ANOMALY,EPHEMERIS_TYPE,CLASSIFICATION_TYPE,NORAD_CAT_ID,ELEMENT_SET_NO,REV_AT_EPOCH,BSTAR,MEAN_MOTION_DOT,MEAN_MOTION_DDOT
QIANFAN-210,2026-153K,2026-07-17T05:04:31.156608,14.23252529,.00081075,88.9925,358.8158,176.5444,183.5806,0,U,69809,999,183,.15948121E-4,.51E-6,0
QIANFAN-211,2026-153L,2026-07-17T01:41:21.370272,14.23381926,.00077014,88.9924,358.8317,173.6396,186.4896,0,U,69810,999,181,.15310706E-4,.49E-6,0
QIANFAN-212,2026-153M,2026-07-16T22:14:52.798272,14.26669772,.00082464,88.9924,358.8476,179.1542,180.9667,0,U,69811,999,179,.59324594E-4,.158E-5,0
QIANFAN-213,2026-153N,2026-07-17T04:58:49.517184,14.26674171,.00079882,88.9924,358.8151,178.1285,181.9940,0,U,69812,999,183,.60689668E-4,.161E-5,0
QIANFAN-214,2026-153P,2026-07-17T01:36:43.764480,14.26715307,.00080097,88.9924,358.8314,177.9806,182.1422,0,U,69813,999,181,.41173484E-4,.114E-5,0
QIANFAN-215,2026-153Q,2026-07-17T04:58:40.757952,14.26718685,.0008111,88.9923,358.8148,178.9203,181.2010,0,U,69814,999,183,.47362684E-4,.129E-5,0
QIANFAN-216,2026-153R,2026-07-17T04:58:40.128960,14.26719738,.00080824,88.9924,358.8151,178.7232,181.3984,0,U,69815,999,183,.15919622E-4,.53E-6,0
QIANFAN-217,2026-153S,2026-07-17T04:58:01.825248,14.26767977,.00077621,88.9918,358.8151,176.2626,183.8627,0,U,69816,999,183,-.13431736E-4,-.18E-6,0
QIANFAN-218,2026-153T,2026-07-17T04:57:29.602368,14.26810969,.00075569,88.9925,358.8152,172.5762,187.5545,0,U,69817,999,183,.37450451E-4,.105E-5,0
CZ-6A R/B,2026-153U,2026-07-17T05:57:27.372672,14.53449124,.00870384,89.0165,358.7350,80.1303,280.9718,0,U,69818,999,187,.29677554E-4,.149E-5,0
STARLINK-37520,2026-154A,2026-07-17T06:00:02.000160,15.80895588,.00015585,53.1585,282.6547,79.5939,103.2896,0,U,69819,999,300,-.14544784E-3,-.2934E-3,0
STARLINK-37553,2026-154B,2026-07-17T06:00:02.000160,15.80883271,.0000797,53.1586,282.6452,100.3416,86.8153,0,U,69820,999,300,.30381687E-4,.5304E-4,0
STARLINK-37561,2026-154C,2026-07-17T06:00:02.000160,15.80881851,.00011338,53.1587,282.6364,95.9863,95.4406,0,U,69821,999,300,.47465317E-4,.8682E-4,0
STARLINK-37521,2026-154D,2026-07-17T06:00:02.000160,15.80881894,.00011123,53.1588,282.6277,92.4104,103.2901,0,U,69822,999,300,.4425818E-5,.175E-5,0
STARLINK-37628,2026-154E,2026-07-17T06:00:02.000160,15.80878684,.00010741,53.1589,282.6190,88.6554,111.3175,0,U,69823,999,300,.65375187E-4,.12226E-3,0
STARLINK-37695,2026-154F,2026-07-17T06:00:02.000160,15.80851143,.00004965,53.1590,282.5372,152.5048,86.9542,0,U,69824,999,300,.20176444E-3,.39264E-3,0
STARLINK-37690,2026-154G,2026-07-17T06:00:02.000160,15.80894341,.00010694,53.1589,282.6014,94.3091,114.2025,0,U,69825,999,300,-.59899457E-4,-.12515E-3,0
STARLINK-37710,2026-154H,2026-07-17T06:00:02.000160,15.80875223,.00009943,53.1589,282.5925,89.8736,122.9163,0,U,69826,999,300,.86972026E-4,.16501E-3,0
STARLINK-38031,2026-154J,2026-07-17T06:00:02.000160,15.80887218,.00007868,53.1589,282.5833,74.0058,143.0509,0,U,69827,999,300,-.13049261E-4,-.3274E-4,0
STARLINK-38001,2026-154K,2026-07-17T06:00:02.000160,15.80903758,.00011472,53.1590,282.5746,84.8265,136.4928,0,U,69828,999,300,-.10418753E-3,-.21241E-3,0
STARLINK-37622,2026-154L,2026-07-17T06:00:02.000160,15.80898179,.00010766,53.1588,282.5659,79.9605,145.6363,0,U,69829,999,300,-.11184763E-3,-.22741E-3,0
STARLINK-37621,2026-154M,2026-07-17T06:00:02.000160,15.80855335,.00007719,53.1624,282.5569,90.8023,139.0713,0,U,69830,999,300,.29211832E-3,.57291E-3,0
STARLINK-37918,2026-154N,2026-07-17T06:00:02.000160,15.80876244,.00010047,53.1589,282.5482,95.9477,138.1980,0,U,69831,999,300,.15465241E-3,.29935E-3,0
STARLINK-37887,2026-154P,2026-07-17T06:00:02.000160,15.80983926,.00006968,53.1589,282.5395,54.3610,183.9839,0,U,69832,999,300,-.57646602E-3,-.113564E-2,0
STARLINK-37624,2026-154Q,2026-07-17T06:00:02.000160,15.80871808,.00009393,53.1587,282.5301,78.7730,163.9143,0,U,69833,999,300,.16143535E-3,.31277E-3,0
STARLINK-37769,2026-154R,2026-07-17T06:00:02.000160,15.80871966,.00011622,53.1624,282.5212,84.1695,162.7941,0,U,69834,999,300,.9596592E-4,.18281E-3,0
STARLINK-37247,2026-154S,2026-07-17T06:00:02.000160,15.80925870,.00014536,53.1588,282.5129,48.0609,203.0346,0,U,69835,999,310,-.31632781E-4,-.6954E-4,0
STARLINK-37569,2026-154T,2026-07-17T06:00:02.000160,15.80856350,.00009782,53.1624,282.5039,85.4516,170.0574,0,U,69836,999,300,.26486701E-3,.51851E-3,0
STARLINK-37587,2026-154U,2026-07-17T06:00:02.000160,15.80909778,.00012902,53.1590,282.4946,75.0656,184.7091,0,U,69837,999,297,-.21696364E-3,-.4338E-3,0
STARLINK-37590,2026-154V,2026-07-17T06:00:02.000160,15.80876450,.00008243,53.1614,282.4862,110.0898,153.9601,0,U,69838,999,284,.90319868E-4,.17166E-3,0
